start=new Date('2022-11-22T00:00:00.000Z').valueOf();
sats=[{"EPHEMERIS_TYPE":"0","MEAN_MOTION":"15.08844826","REV_AT_EPOCH":"1961","SITE":"AFETR","DECAY_DATE":null,"TLE_LINE2":"2 53149  53.2168 168.6159 0002469  44.4316 315.6874 15.08844826 19615","MEAN_ELEMENT_THEORY":"SGP4","OBJECT_TYPE":"PAYLOAD","APOAPSIS":"541.439","TLE_LINE1":"1 53149U 22083T   22325.79171956  .00000888  00000-0  73902-4 0  9995","OBJECT_ID":"2022-083T","PERIAPSIS":"538.023","RCS_SIZE":"LARGE","PERIOD":"95.437","ECCENTRICITY":"0.00024690","TIME_SYSTEM":"UTC","CENTER_NAME":"EARTH","REF_FRAME":"TEME","GP_ID":"218435595","FILE":"3666658","MEAN_ANOMALY":"315.6874","COUNTRY_CODE":"US","EPOCH":"2022-11-21T19:00:04.569984","INCLINATION":"53.2168","CLASSIFICATION_TYPE":"U","ARG_OF_PERICENTER":"44.4316","MEAN_MOTION_DDOT":"0.0000000000000","OBJECT_NAME":"STARLINK-4021","LAUNCH_DATE":"2022-07-17","MEAN_MOTION_DOT":"0.00000888","SEMIMAJOR_AXIS":"6917.866","RA_OF_ASC_NODE":"168.6159","BSTAR":"0.00007390200000","NORAD_CAT_ID":"53149","ELEMENT_SET_NO":"999"},{"INCLINATION":"53.2154","CLASSIFICATION_TYPE":"U","MEAN_MOTION_DDOT":"0.0000000000000","ARG_OF_PERICENTER":"41.0623","OBJECT_NAME":"STARLINK-4038","LAUNCH_DATE":"2022-07-17","MEAN_MOTION_DOT":"0.00000980","SEMIMAJOR_AXIS":"6917.885","RA_OF_ASC_NODE":"168.4391","BSTAR":"0.00007969100000","NORAD_CAT_ID":"53150","ELEMENT_SET_NO":"999","APOAPSIS":"541.465","TLE_LINE1":"1 53150U 22083U   22325.83220254  .00000980  00000-0  79691-4 0  9992","OBJECT_ID":"2022-083U","PERIAPSIS":"538.035","RCS_SIZE":"LARGE","PERIOD":"95.438","ECCENTRICITY":"0.00024790","CENTER_NAME":"EARTH","TIME_SYSTEM":"UTC","GP_ID":"218435428","REF_FRAME":"TEME","FILE":"3666658","EPOCH":"2022-11-21T19:58:22.299456","COUNTRY_CODE":"US","MEAN_ANOMALY":"319.0555","REV_AT_EPOCH":"1961","SITE":"AFETR","DECAY_DATE":null,"TLE_LINE2":"2 53150  53.2154 168.4391 0002479  41.0623 319.0555 15.08838485 19611","MEAN_ELEMENT_THEORY":"SGP4","OBJECT_TYPE":"PAYLOAD","EPHEMERIS_TYPE":"0","MEAN_MOTION":"15.08838485"},{"CENTER_NAME":"EARTH","TIME_SYSTEM":"UTC","REF_FRAME":"TEME","GP_ID":"218436248","FILE":"3666658","COUNTRY_CODE":"US","EPOCH":"2022-11-21T19:42:27.744480","MEAN_ANOMALY":"316.6188","TLE_LINE1":"1 53151U 22083V   22325.82115445  .00003150  00000-0  21589-3 0  9991","APOAPSIS":"541.219","OBJECT_ID":"2022-083V","PERIAPSIS":"538.218","ECCENTRICITY":"0.00021690","RCS_SIZE":"LARGE","PERIOD":"95.437","RA_OF_ASC_NODE":"168.4873","BSTAR":"0.00021589000000","NORAD_CAT_ID":"53151","ELEMENT_SET_NO":"999","INCLINATION":"53.2164","CLASSIFICATION_TYPE":"U","MEAN_MOTION_DDOT":"0.0000000000000","ARG_OF_PERICENTER":"43.4975","OBJECT_NAME":"STARLINK-4040","LAUNCH_DATE":"2022-07-17","SEMIMAJOR_AXIS":"6917.853","MEAN_MOTION_DOT":"0.00003150","EPHEMERIS_TYPE":"0","MEAN_MOTION":"15.08848879","MEAN_ELEMENT_THEORY":"SGP4","OBJECT_TYPE":"PAYLOAD","REV_AT_EPOCH":"1961","SITE":"AFETR","DECAY_DATE":null,"TLE_LINE2":"2 53151  53.2164 168.4873 0002169  43.4975 316.6188 15.08848879 19613"},{"FILE":"3666658","COUNTRY_CODE":"US","EPOCH":"2022-11-21T19:53:04.055424","MEAN_ANOMALY":"308.2915","TIME_SYSTEM":"UTC","CENTER_NAME":"EARTH","REF_FRAME":"TEME","GP_ID":"218436084","OBJECT_ID":"2022-083W","APOAPSIS":"541.089","TLE_LINE1":"1 53152U 22083W   22325.82851916  .00001834  00000-0  13327-3 0  9990","PERIOD":"95.437","RCS_SIZE":"LARGE","ECCENTRICITY":"0.00019530","PERIAPSIS":"538.387","NORAD_CAT_ID":"53152","BSTAR":"0.00013327000000","ELEMENT_SET_NO":"999","RA_OF_ASC_NODE":"168.4544","OBJECT_NAME":"STARLINK-4045","SEMIMAJOR_AXIS":"6917.873","MEAN_MOTION_DOT":"0.00001834","LAUNCH_DATE":"2022-07-17","INCLINATION":"53.2147","ARG_OF_PERICENTER":"51.8253","MEAN_MOTION_DDOT":"0.0000000000000","CLASSIFICATION_TYPE":"U","MEAN_MOTION":"15.08842312","EPHEMERIS_TYPE":"0","OBJECT_TYPE":"PAYLOAD","MEAN_ELEMENT_THEORY":"SGP4","TLE_LINE2":"2 53152  53.2147 168.4544 0001953  51.8253 308.2915 15.08842312 19613","REV_AT_EPOCH":"1961","DECAY_DATE":null,"SITE":"AFETR"},{"CENTER_NAME":"EARTH","TIME_SYSTEM":"UTC","REF_FRAME":"TEME","GP_ID":"218435264","FILE":"3666658","COUNTRY_CODE":"US","MEAN_ANOMALY":"303.3815","EPOCH":"2022-11-21T19:37:11.791776","APOAPSIS":"541.168","TLE_LINE1":"1 53153U 22083X   22325.81749759  .00000073  00000-0  22698-4 0  9997","OBJECT_ID":"2022-083X","PERIAPSIS":"538.441","RCS_SIZE":"LARGE","ECCENTRICITY":"0.00019710","PERIOD":"95.439","RA_OF_ASC_NODE":"168.5052","BSTAR":"0.00002269800000","NORAD_CAT_ID":"53153","ELEMENT_SET_NO":"999","INCLINATION":"53.2180","CLASSIFICATION_TYPE":"U","MEAN_MOTION_DDOT":"0.0000000000000","ARG_OF_PERICENTER":"56.7365","OBJECT_NAME":"STARLINK-4098","LAUNCH_DATE":"2022-07-17","SEMIMAJOR_AXIS":"6917.940","MEAN_MOTION_DOT":"0.00000073","EPHEMERIS_TYPE":"0","MEAN_MOTION":"15.08820618","MEAN_ELEMENT_THEORY":"SGP4","OBJECT_TYPE":"PAYLOAD","REV_AT_EPOCH":"1961","SITE":"AFETR","DECAY_DATE":null,"TLE_LINE2":"2 53153  53.2180 168.5052 0001971  56.7365 303.3815 15.08820618 19614"},{"TLE_LINE2":"2 53154  53.2154 168.4715 0001799  49.9373 310.1776 15.08843559 19613","DECAY_DATE":null,"SITE":"AFETR","REV_AT_EPOCH":"1961","OBJECT_TYPE":"PAYLOAD","MEAN_ELEMENT_THEORY":"SGP4","MEAN_MOTION":"15.08843559","EPHEMERIS_TYPE":"0","MEAN_MOTION_DOT":"0.00000238","SEMIMAJOR_AXIS":"6917.870","LAUNCH_DATE":"2022-07-17","OBJECT_NAME":"STARLINK-4077","MEAN_MOTION_DDOT":"0.0000000000000","ARG_OF_PERICENTER":"49.9373","CLASSIFICATION_TYPE":"U","INCLINATION":"53.2154","ELEMENT_SET_NO":"999","NORAD_CAT_ID":"53154","BSTAR":"0.00003303100000","RA_OF_ASC_NODE":"168.4715","RCS_SIZE":"LARGE","PERIOD":"95.437","ECCENTRICITY":"0.00017990","PERIAPSIS":"538.490","OBJECT_ID":"2022-083Y","TLE_LINE1":"1 53154U 22083Y   22325.82483322  .00000238  00000-0  33031-4 0  9996","APOAPSIS":"540.979","COUNTRY_CODE":"US","EPOCH":"2022-11-21T19:47:45.590208","MEAN_ANOMALY":"310.1776","FILE":"3666658","REF_FRAME":"TEME","GP_ID":"218435760","TIME_SYSTEM":"UTC","CENTER_NAME":"EARTH"},{"MEAN_MOTION":"15.08832896","EPHEMERIS_TYPE":"0","MEAN_ELEMENT_THEORY":"SGP4","OBJECT_TYPE":"PAYLOAD","TLE_LINE2":"2 53155  53.2152 168.5368 0001781  56.0871 304.0290 15.08832896 20257","SITE":"AFETR","DECAY_DATE":null,"REV_AT_EPOCH":"2025","EPOCH":"2022-11-21T19:26:34.199520","COUNTRY_CODE":"US","MEAN_ANOMALY":"304.0290","FILE":"3666658","REF_FRAME":"TEME","GP_ID":"218435924","TIME_SYSTEM":"UTC","CENTER_NAME":"EARTH","PERIAPSIS":"538.535","ECCENTRICITY":"0.00017810","RCS_SIZE":"LARGE","PERIOD":"95.438","APOAPSIS":"540.999","TLE_LINE1":"1 53155U 22083Z   22325.81011805 -.00001294  00000-0 -63210-4 0  9996","OBJECT_ID":"2022-083Z","ELEMENT_SET_NO":"999","BSTAR":"-0.00006321000000","NORAD_CAT_ID":"53155","RA_OF_ASC_NODE":"168.5368","LAUNCH_DATE":"2022-07-17","SEMIMAJOR_AXIS":"6917.902","MEAN_MOTION_DOT":"-0.00001294","OBJECT_NAME":"STARLINK-4088","CLASSIFICATION_TYPE":"U","ARG_OF_PERICENTER":"56.0871","MEAN_MOTION_DDOT":"0.0000000000000","INCLINATION":"53.2152"},{"RA_OF_ASC_NODE":"168.5324","NORAD_CAT_ID":"53156","BSTAR":"0.00010706000000","ELEMENT_SET_NO":"999","INCLINATION":"53.2171","MEAN_MOTION_DDOT":"0.0000000000000","ARG_OF_PERICENTER":"54.0864","CLASSIFICATION_TYPE":"U","OBJECT_NAME":"STARLINK-4087","MEAN_MOTION_DOT":"0.00001416","SEMIMAJOR_AXIS":"6917.889","LAUNCH_DATE":"2022-07-17","TIME_SYSTEM":"UTC","CENTER_NAME":"EARTH","GP_ID":"218436410","REF_FRAME":"TEME","FILE":"3666658","COUNTRY_CODE":"US","EPOCH":"2022-11-21T19:27:56.531808","MEAN_ANOMALY":"306.0312","OBJECT_ID":"2022-083AA","TLE_LINE1":"1 53156U 22083AA  22325.81107097  .00001416  00000-0  10706-3 0  9991","APOAPSIS":"541.122","RCS_SIZE":"LARGE","ECCENTRICITY":"0.00019780","PERIOD":"95.438","PERIAPSIS":"538.385","OBJECT_TYPE":"PAYLOAD","MEAN_ELEMENT_THEORY":"SGP4","REV_AT_EPOCH":"1961","DECAY_DATE":null,"SITE":"AFETR","TLE_LINE2":"2 53156  53.2171 168.5324 0001978  54.0864 306.0312 15.08837244 19616","EPHEMERIS_TYPE":"0","MEAN_MOTION":"15.08837244"},{"OBJECT_ID":"2022-083AB","TLE_LINE1":"1 53157U 22083AB  22325.80275463  .00001613  00000-0  11942-3 0  9996","APOAPSIS":"540.929","PERIOD":"95.438","RCS_SIZE":"LARGE","ECCENTRICITY":"0.00017150","PERIAPSIS":"538.556","FILE":"3666658","COUNTRY_CODE":"US","EPOCH":"2022-11-21T19:15:58.000032","MEAN_ANOMALY":"302.8426","TIME_SYSTEM":"UTC","CENTER_NAME":"EARTH","REF_FRAME":"TEME","GP_ID":"218435596","OBJECT_NAME":"STARLINK-4093","SEMIMAJOR_AXIS":"6917.878","MEAN_MOTION_DOT":"0.00001613","LAUNCH_DATE":"2022-07-17","INCLINATION":"53.2156","ARG_OF_PERICENTER":"57.2731","MEAN_MOTION_DDOT":"0.0000000000000","CLASSIFICATION_TYPE":"U","NORAD_CAT_ID":"53157","BSTAR":"0.00011942000000","ELEMENT_SET_NO":"999","RA_OF_ASC_NODE":"168.5648","MEAN_MOTION":"15.08840853","EPHEMERIS_TYPE":"0","TLE_LINE2":"2 53157  53.2156 168.5648 0001715  57.2731 302.8426 15.08840853 19616","REV_AT_EPOCH":"1961","DECAY_DATE":null,"SITE":"AFETR","OBJECT_TYPE":"PAYLOAD","MEAN_ELEMENT_THEORY":"SGP4"},{"OBJECT_NAME":"STARLINK-4054","SEMIMAJOR_AXIS":"6917.919","MEAN_MOTION_DOT":"0.00000409","LAUNCH_DATE":"2022-07-17","INCLINATION":"53.2167","ARG_OF_PERICENTER":"64.2167","MEAN_MOTION_DDOT":"0.0000000000000","CLASSIFICATION_TYPE":"U","NORAD_CAT_ID":"53158","BSTAR":"0.00004381600000","ELEMENT_SET_NO":"999","RA_OF_ASC_NODE":"168.5205","OBJECT_ID":"2022-083AC","TLE_LINE1":"1 53158U 22083AC  22325.81379979  .00000409  00000-0  43816-4 0  9993","APOAPSIS":"540.837","PERIOD":"95.438","RCS_SIZE":"LARGE","ECCENTRICITY":"0.00015230","PERIAPSIS":"538.730","FILE":"3666658","EPOCH":"2022-11-21T19:31:52.301856","COUNTRY_CODE":"US","MEAN_ANOMALY":"295.8982","TIME_SYSTEM":"UTC","CENTER_NAME":"EARTH","REF_FRAME":"TEME","GP_ID":"218435429","TLE_LINE2":"2 53158  53.2167 168.5205 0001523  64.2167 295.8982 15.08827432 19612","REV_AT_EPOCH":"1961","DECAY_DATE":null,"SITE":"AFETR","OBJECT_TYPE":"PAYLOAD","MEAN_ELEMENT_THEORY":"SGP4","MEAN_MOTION":"15.08827432","EPHEMERIS_TYPE":"0"}];
